NOAA 1 [-]              
1 04793U 70106A   18317.84189458 -.00000047  00000-0 -14914-4 0  9990
2 04793 101.7357  23.9756 0031552 345.5913 127.2006 12.53987284193186
NOAA 2 (ITOS-D) [-]     
1 06235U 72082A   18317.86388065 -.00000027  00000-0  11606-3 0  9996
2 06235 101.7614 281.1640 0004316  71.2701 342.7689 12.53109942107689
NOAA 3 [-]              
1 06920U 73086A   18317.91414439 -.00000026  00000-0  13937-3 0  9991
2 06920 102.0175 284.4354 0006139 196.1714 224.8208 12.40346388 38188
NOAA 4 [-]              
1 07529U 74089A   18317.85708778 -.00000011  00000-0  21029-3 0  9991
2 07529 101.7193 283.1030 0009079 102.8599 310.6965 12.53123425 12251
NOAA 5 [-]              
1 09057U 76077A   18317.93235741 -.00000034  00000-0  76567-4 0  9995
2 09057 101.8992 289.6134 0010206  49.0359  12.5675 12.37756696911464
TIROS N [P]             
1 11060U 78096A   18317.72906873 -.00000003  00000-0  20366-4 0  9995
2 11060  98.8238  11.7618 0009776 313.4246  46.6115 14.18214596285913
NOAA 6 [P]              
1 11416U 79057A   18317.96716272  .00000049  00000-0  33696-4 0  9995
2 11416  98.6232 307.6806 0010570 162.0269 198.1291 14.33503946 53618
NOAA 7 [-]              
1 12553U 81059A   18317.90283132 -.00000015  00000-0  15760-4 0  9997
2 12553  99.0934 315.2632 0010645 234.8473 165.6053 14.17249648932018
NOAA 8 [-]              
1 13923U 83022A   18317.92149944  .00000013  00000-0  22182-4 0  9998
2 13923  98.5611 302.0021 0016320  91.3982 268.9069 14.28657372855139
NOAA 9 [P]              
1 15427U 84123A   18318.52733396  .00000003  00000-0  23874-4 0  9997
2 15427  98.8636 263.1552 0013948 292.7209 204.6193 14.16051640751300
NOAA 10 [-]             
1 16969U 86073A   18317.94443295 -.00000002  00000-0  16153-4 0  9998
2 16969  98.4705 315.8511 0011710 198.1242 186.1006 14.28056219673643
NOAA 11 [-]             
1 19531U 88089A   18317.88983153 -.00000025  00000-0  85181-5 0  9993
2 19531  98.4790 358.1890 0011194   4.8897 355.2385 14.15233138555304
NOAA 12 [-]             
1 21263U 91032A   18317.94608490 -.00000023  00000-0  84417-5 0  9994
2 21263  98.5294 334.2479 0013016 213.2187 146.8178 14.25879971429823
NOAA 13 [-]             
1 22739U 93050A   18317.66204591  .00000003  00000-0  23768-4 0  9996
2 22739  98.4951 346.8497 0010312 137.9647 222.2319 14.12717074301836
NOAA 14 [-]             
1 23455U 94089A   18317.92401475 -.00000022  00000-0  10735-4 0  9996
2 23455  98.6288  22.0016 0010417 122.2579 237.9605 14.14122622231344
NOAA 15 [B]             
1 25338U 98030A   18317.93891887  .00000017  00000-0  25953-4 0  9990
2 25338  98.7630 334.4257 0011047 148.0242 212.1610 14.25883158 66109
NOAA 16 [-]             
1 26536U 00055A   18317.93627431 -.00000010  00000-0  18048-4 0  9994
2 26536  98.8023  28.7755 0009599 303.4937  56.5318 14.13216349232109
NOAA 17 [-]             
1 27453U 02032A   18317.93990392  .00000034  00000-0  32474-4 0  9993
2 27453  98.5070 269.5962 0012467 130.6360 229.5906 14.25024838852061
NOAA 18 [B]             
1 28654U 05018A   18317.93592302 -.00000037  00000-0  52126-5 0  9994
2 28654  99.1284 356.3132 0015144  69.1686 291.1106 14.12389695694821
NOAA 19 [+]             
1 33591U 09005A   18317.90740990  .00000027  00000-0  40258-4 0  9995
2 33591  99.1598 299.0314 0013008 266.8497  93.1185 14.12317710503042
SUOMI NPP [+]           
1 37849U 11061A   18317.83387745  .00000014  00000-0  27543-4 0  9995
2 37849  98.7131 254.1968 0001517  99.4012 318.1781 14.19548502365109
NOAA 20 [+]             
1 43013U 17073A   18318.56212938  .00000014  00000-0  27342-4 0  9993
2 43013  98.7388 254.7356 0001177 104.3504 255.7803 14.19551779 51242
